*******************************************************************************
 Revised: Mar 12, 2021           Callisto / (Jupiter)                       504

 SATELLITE PHYSICAL PROPERTIES:
  Mean radius (km)      = 2410.3 +- 1.5       Density (g cm^-3)= 1.834 +- 0.004
  GM (km^3/s^2)         = 7179.2834 +- 0.0097 Geometric Albedo = 0.17  +- 0.02

 SATELLITE ORBIT (at J2000.0 epoch, 2000-Jan-1.5):
  Semi-major axis, a (km)~ 1,883,000          Orbital period   ~ 16.691    d
  Eccentricity, e        ~ 0.007              Rotational period= Synchronous
  Inclination, i  (deg)  ~ 0.2   
*******************************************************************************
 
 
*******************************************************************************
Ephemeris / WWW_USER Wed Apr  7 13:46:34 2021 Pasadena, USA      / Horizons
*******************************************************************************
Target body name: Callisto (504)                  {source: jup365_merged}
Center body name: Jupiter (599)                   {source: jup365_merged}
Center-site name: BODY CENTER
*******************************************************************************
Start time      : A.D. 1986-Apr-24 12:00:00.0000 TDB
Stop  time      : A.D. 2013-Sep-09 12:00:00.0000 TDB
Step-size       : 144000 minutes
*******************************************************************************
Center geodetic : 0.00000000,0.00000000,0.0000000 {W-lon(deg),Lat(deg),Alt(km)}
Center cylindric: 0.00000000,0.00000000,0.0000000 {W-lon(deg),Dxy(km),Dz(km)}
Center radii    : 71492.0 x 71492.0 x 66854.0 km  {Equator, meridian, pole}    
Output units    : AU-D
Output type     : GEOMETRIC cartesian states
Output format   : 2 (position and velocity)
Reference frame : Ecliptic of J2000.0
*******************************************************************************
JDTDB
   X     Y     Z
   VX    VY    VZ
*******************************************************************************
$$SOE
2450245.000000000 = A.D. 1996-Jun-10 12:00:00.0000 TDB 
 X =-5.841337748826135E-03 Y = 1.120586775983565E-02 Z = 2.909236015205868E-04
 VX=-4.196001951832016E-03 VY=-2.152352838374844E-03 VZ=-1.264010585782094E-04
2450345.000000000 = A.D. 1996-Sep-18 12:00:00.0000 TDB 
 X =-5.271902687750214E-03 Y = 1.147964400727019E-02 Z = 3.074596533799049E-04
 VX=-4.299151564123319E-03 VY=-1.939509325862775E-03 VZ=-1.208336322834421E-04
2450445.000000000 = A.D. 1996-Dec-27 12:00:00.0000 TDB 
 X =-4.689057354447628E-03 Y = 1.172519953124646E-02 Z = 3.233038377822455E-04
 VX=-4.393639765581670E-03 VY=-1.721513136056884E-03 VZ=-1.149613645677533E-04
2450545.000000000 = A.D. 1997-Apr-06 12:00:00.0000 TDB 
 X =-4.094224966430161E-03 Y = 1.194083101474436E-02 Z = 3.383462882295765E-04
 VX=-4.475511205385562E-03 VY=-1.498671427671358E-03 VZ=-1.087295739094388E-04
2450645.000000000 = A.D. 1997-Jul-15 12:00:00.0000 TDB 
 X =-3.489287224722161E-03 Y = 1.212684311761187E-02 Z = 3.525376796119507E-04
 VX=-4.547960700290859E-03 VY=-1.272573937508338E-03 VZ=-1.022358634224957E-04
2450745.000000000 = A.D. 1997-Oct-23 12:00:00.0000 TDB 
 X =-2.875285229242101E-03 Y = 1.228163520787300E-02 Z = 3.657704874579913E-04
 VX=-4.607230387953094E-03 VY=-1.042241054344725E-03 VZ=-9.539179740076858E-05
2450845.000000000 = A.D. 1998-Jan-31 12:00:00.0000 TDB 
 X =-2.254117159187037E-03 Y = 1.240562968021885E-02 Z = 3.780015408768327E-04
 VX=-4.656301906529704E-03 VY=-8.100100658605633E-04 VZ=-8.833385099876249E-05
2450945.000000000 = A.D. 1998-May-11 12:00:00.0000 TDB 
 X =-1.626481106839832E-03 Y = 1.249778652312823E-02 Z = 3.891607312012253E-04
 VX=-4.692344423390867E-03 VY=-5.738349480042633E-04 VZ=-8.095949406617055E-05
2451045.000000000 = A.D. 1998-Aug-19 12:00:00.0000 TDB 
 X =-9.947967556677725E-04 Y = 1.255858939868053E-02 Z = 3.992225675227020E-04
 VX=-4.717765731857094E-03 VY=-3.372457169668626E-04 VZ=-7.344712824517459E-05
2451145.000000000 = A.D. 1998-Nov-27 12:00:00.0000 TDB 
 X =-3.599560094535690E-04 Y = 1.258730300544349E-02 Z = 4.081581129681883E-04
 VX=-4.730610558668619E-03 VY=-9.783827277405632E-05 VZ=-6.569455609227197E-05
2451245.000000000 = A.D. 1999-Mar-07 12:00:00.0000 TDB 
 X = 2.753850572856252E-04 Y = 1.258412046087532E-02 Z = 4.159641918056005E-04
 VX=-4.732051215447171E-03 VY= 1.402009483949977E-04 VZ=-5.788286511562920E-05
2451345.000000000 = A.D. 1999-Jun-15 12:00:00.0000 TDB 
 X = 9.107248035418543E-04 Y = 1.254866951865217E-02 Z = 4.226647596853068E-04
 VX=-4.721022854241357E-03 VY= 3.799162486534074E-04 VZ=-4.989573659304450E-05
2451445.000000000 = A.D. 1999-Sep-23 12:00:00.0000 TDB 
 X = 1.543484903188092E-03 Y = 1.248104762897872E-02 Z = 4.282775080074401E-04
 VX=-4.697715584234874E-03 VY= 6.171894906410575E-04 VZ=-4.188816324280597E-05
2451545.000000000 = A.D. 2000-Jan-01 12:00:00.0000 TDB 
 X = 2.173023781100756E-03 Y = 1.238159356837502E-02 Z = 4.328588775702288E-04
 VX=-4.662531633544506E-03 VY= 8.551926236558492E-04 VZ=-3.374943156696009E-05
2451645.000000000 = A.D. 2000-Apr-10 12:00:00.0000 TDB 
 X = 2.796538947030213E-03 Y = 1.225039918496851E-02 Z = 4.364164444344901E-04
 VX=-4.614842141811137E-03 VY= 1.089604330448078E-03 VZ=-2.561217865910370E-05
2451745.000000000 = A.D. 2000-Jul-19 12:00:00.0000 TDB 
 X = 3.413257539446548E-03 Y = 1.208821754757381E-02 Z = 4.389992613637474E-04
 VX=-4.556264625479245E-03 VY= 1.323102974827612E-03 VZ=-1.738766044863269E-05
2451845.000000000 = A.D. 2000-Oct-27 12:00:00.0000 TDB 
 X = 4.020628618186947E-03 Y = 1.189484584418908E-02 Z = 4.405793471034115E-04
 VX=-4.484883579235992E-03 VY= 1.551772242932984E-03 VZ=-9.164712564887508E-06
2451945.000000000 = A.D. 2001-Feb-04 12:00:00.0000 TDB 
 X = 4.617843089426918E-03 Y = 1.167134874482840E-02 Z = 4.411816037749026E-04
 VX=-4.403113117872529E-03 VY= 1.777796588139890E-03 VZ=-8.830470826760808E-07
2452045.000000000 = A.D. 2001-May-15 12:00:00.0000 TDB 
 X = 5.202607889975918E-03 Y = 1.141747278980782E-02 Z = 4.407456437331818E-04
 VX=-4.308255623445137E-03 VY= 1.998299621647126E-03 VZ= 7.412545969735485E-06
2452145.000000000 = A.D. 2001-Aug-23 12:00:00.0000 TDB 
 X = 5.773997406552320E-03 Y = 1.113479828029392E-02 Z = 4.392823251907843E-04
 VX=-4.203763958859246E-03 VY= 2.214801751601974E-03 VZ= 1.573664358488799E-05
2452245.000000000 = A.D. 2001-Dec-01 12:00:00.0000 TDB 
 X = 6.330224346989224E-03 Y = 1.082310771456702E-02 Z = 4.367195119020235E-04
 VX=-4.086678208449498E-03 VY= 2.425357273109700E-03 VZ= 2.407233855523025E-05
2452345.000000000 = A.D. 2002-Mar-11 12:00:00.0000 TDB 
 X = 6.870121201741034E-03 Y = 1.048421518724302E-02 Z = 4.330644765067925E-04
 VX=-3.961005974588603E-03 VY= 2.630232321185024E-03 VZ= 3.237498305055934E-05
2452445.000000000 = A.D. 2002-Jun-19 12:00:00.0000 TDB 
 X = 7.392122665792428E-03 Y = 1.011791523720657E-02 Z = 4.282519638414520E-04
 VX=-3.823291678952303E-03 VY= 2.828381591573440E-03 VZ= 4.065614118529264E-05
2452545.000000000 = A.D. 2002-Sep-27 12:00:00.0000 TDB 
 X = 7.894728204861694E-03 Y = 9.726115166615498E-03 Z = 4.222993083304650E-04
 VX=-3.677461163733797E-03 VY= 3.018935943461188E-03 VZ= 4.882324841102863E-05
2452645.000000000 = A.D. 2003-Jan-05 12:00:00.0000 TDB 
 X = 8.376939559261514E-03 Y = 9.308680160674035E-03 Z = 4.151678165914177E-04
 VX=-3.520111455416875E-03 VY= 3.202373236461190E-03 VZ= 5.693076785984691E-05
2452745.000000000 = A.D. 2003-Apr-15 12:00:00.0000 TDB 
 X = 8.837337002371985E-03 Y = 8.867577538142145E-03 Z = 4.068968856416424E-04
 VX=-3.355070239454231E-03 VY= 3.377011703794651E-03 VZ= 6.485447744953756E-05
2452845.000000000 = A.D. 2003-Jul-24 12:00:00.0000 TDB 
 X = 9.275374016390189E-03 Y = 8.403053051864468E-03 Z = 3.974867937599334E-04
 VX=-3.179693177255137E-03 VY= 3.544354345384403E-03 VZ= 7.267489461516032E-05
2452945.000000000 = A.D. 2003-Nov-01 12:00:00.0000 TDB 
 X = 9.689170263980562E-03 Y = 7.917228925837280E-03 Z = 3.869951847750892E-04
 VX=-2.997438479613931E-03 VY= 3.701495422586818E-03 VZ= 8.023339162967724E-05
2453045.000000000 = A.D. 2004-Feb-09 12:00:00.0000 TDB 
 X = 1.007827778250303E-02 Y = 7.410731006632138E-03 Z = 3.754540093125867E-04
 VX=-2.806314755555631E-03 VY= 3.850565880267489E-03 VZ= 8.762894384549541E-05
2453145.000000000 = A.D. 2004-May-19 12:00:00.0000 TDB 
 X = 1.044076319202375E-02 Y = 6.885297967215809E-03 Z = 3.629200022236729E-04
 VX=-2.608704503472511E-03 VY= 3.987920173954278E-03 VZ= 9.469313379126727E-05
2453245.000000000 = A.D. 2004-Aug-27 12:00:00.0000 TDB 
 X = 1.077671384624065E-02 Y = 6.341694884446250E-03 Z = 3.494450141642033E-04
 VX=-2.403380752695192E-03 VY= 4.116693284945556E-03 VZ= 1.015540163257946E-04
2453345.000000000 = A.D. 2004-Dec-05 12:00:00.0000 TDB 
 X = 1.108436222426481E-02 Y = 5.781571205176675E-03 Z = 3.350860208260911E-04
 VX=-2.191792927803487E-03 VY= 4.233081512579672E-03 VZ= 1.080546247515907E-04
2453445.000000000 = A.D. 2005-Mar-15 12:00:00.0000 TDB 
 X = 1.136395012310103E-02 Y = 5.206430470427491E-03 Z = 3.199201555826336E-04
 VX=-1.974278663511649E-03 VY= 4.340556839916532E-03 VZ= 1.143218844967585E-04
2453545.000000000 = A.D. 2005-Jun-23 12:00:00.0000 TDB 
 X = 1.161361312626139E-02 Y = 4.617890291317523E-03 Z = 3.039954217144826E-04
 VX=-1.751423469021596E-03 VY= 4.435055948947591E-03 VZ= 1.202093417183757E-04
2453645.000000000 = A.D. 2005-Oct-01 12:00:00.0000 TDB 
 X = 1.183363985727258E-02 Y = 4.017667975347429E-03 Z = 2.873901421155378E-04
 VX=-1.524586411365827E-03 VY= 4.519777051031273E-03 VZ= 1.258247769130729E-04
2453745.000000000 = A.D. 2006-Jan-09 12:00:00.0000 TDB 
 X = 1.202240353143243E-02 Y = 3.406800947953699E-03 Z = 2.701235002488430E-04
 VX=-1.292944630029827E-03 VY= 4.590891753449819E-03 VZ= 1.310517091124392E-04
2453845.000000000 = A.D. 2006-Apr-19 12:00:00.0000 TDB 
 X = 1.218030661079258E-02 Y = 2.787311823899935E-03 Z = 2.522713104646937E-04
 VX=-1.058731034269729E-03 VY= 4.651491622137862E-03 VZ= 1.359799526641000E-04
